{"type": "FeatureCollection", "features": [ {"type": "Feature", "properties": {"norad_id": 38552, "name": "METEOSAT-10 (MSG-3)", "group": "weather", "lat": 3.9037444009815445, "lon": 130.0111233211453, "alt_km": 35787.428799280555, "timestamp": "2025-12-01T03:58:49.195300+00:00", "meta": {"OBJECT_NAME": "METEOSAT-10 (MSG-3)", "OBJECT_ID": "2012-035B", "EPOCH": "2025-11-30T01:51:30.759840", "MEAN_MOTION": 1.00272045, "ECCENTRICITY": 5.437e-05, "INCLINATION": 4.1965, "RA_OF_ASC_NODE": 61.7407, "ARG_OF_PERICENTER": 218.0524, "MEAN_ANOMALY": 177.3977, "EPHEMERIS_TYPE": 0, "CLASSIFICATION_TYPE": "U", "NORAD_CAT_ID": 38552, "ELEMENT_SET_NO": 999, "REV_AT_EPOCH": 4886, "BSTAR": 0, "MEAN_MOTION_DOT": 1.5e-07, "MEAN_MOTION_DDOT": 0, "GROUP": "weather"}, "tle": {"line1": "1 38552U 12035B   25334.07743935  .00000015  00000+0  00000+0 0  9993", "line2": "2 38552   4.1965  61.7407 0000543 218.0524 177.3977  1.00272045 48867"}}, "geometry": {"type": "Point", "coordinates": [130.0111233211453, 3.9037444009815445]}}, {"type": "Feature", "properties": {"norad_id": 38771, "name": "METOP-B", "group": "weather", "lat": -61.803438538241366, "lon": 41.8785704910644, "alt_km": 828.7651890804045, "timestamp": "2025-12-01T03:58:49.195313+00:00", "meta": {"OBJECT_NAME": "METOP-B", "OBJECT_ID": "2012-049A", "EPOCH": "2025-11-30T18:08:24.493920", "MEAN_MOTION": 14.21401095, "ECCENTRICITY": 0.0002351, "INCLINATION": 98.6817, "RA_OF_ASC_NODE": 24.9168, "ARG_OF_PERICENTER": 171.694, "MEAN_ANOMALY": 188.4276, "EPHEMERIS_TYPE": 0, "CLASSIFICATION_TYPE": "U", "NORAD_CAT_ID": 38771, "ELEMENT_SET_NO": 999, "REV_AT_EPOCH": 68507, "BSTAR": 8.5284e-05, "MEAN_MOTION_DOT": 1.43e-06, "MEAN_MOTION_DDOT": 0, "GROUP": "weather"}, "tle": {"line1": "1 38771U 12049A   25334.75583905  .00000143  00000+0  85284-4 0  9999", "line2": "2 38771  98.6817  24.9168 0002351 171.6940 188.4276 14.21401095685075"}}, "geometry": {"type": "Point", "coordinates": [41.8785704910644, -61.803438538241366]}}, {"type": "Feature", "properties": {"norad_id": 39216, "name": "INSAT-3D", "group": "weather", "lat": 0.12214120549324671, "lon": -100.53104906352232, "alt_km": 35778.79770752264, "timestamp": "2025-12-01T03:58:49.195333+00:00", "meta": {"OBJECT_NAME": "INSAT-3D", "OBJECT_ID": "2013-038B", "EPOCH": "2025-11-30T19:35:44.952000", "MEAN_MOTION": 1.00275316, "ECCENTRICITY": 0.000165, "INCLINATION": 1.411, "RA_OF_ASC_NODE": 85.132, "ARG_OF_PERICENTER": 149.1844, "MEAN_ANOMALY": 259.0545, "EPHEMERIS_TYPE": 0, "CLASSIFICATION_TYPE": "U", "NORAD_CAT_ID": 39216, "ELEMENT_SET_NO": 999, "REV_AT_EPOCH": 4509, "BSTAR": 0, "MEAN_MOTION_DOT": -3.17e-06, "MEAN_MOTION_DDOT": 0, "GROUP": "weather"}, "tle": {"line1": "1 39216U 13038B   25334.81649250 -.00000317  00000+0  00000+0 0  9998", "line2": "2 39216   1.4110  85.1320 0001650 149.1844 259.0545  1.00275316 45095"}}, "geometry": {"type": "Point", "coordinates": [-100.53104906352232, 0.12214120549324671]}}, {"type": "Feature", "properties": {"norad_id": 39260, "name": "FENGYUN 3C", "group": "weather", "lat": 60.60860403281046, "lon": -61.93843993768084, "alt_km": 843.7903404204981, "timestamp": "2025-12-01T03:58:49.195346+00:00", "meta": {"OBJECT_NAME": "FENGYUN 3C", "OBJECT_ID": "2013-052A", "EPOCH": "2025-11-30T20:54:14.323104", "MEAN_MOTION": 14.15690342, "ECCENTRICITY": 0.0013735, "INCLINATION": 98.4751, "RA_OF_ASC_NODE": 313.1306, "ARG_OF_PERICENTER": 231.8727, "MEAN_ANOMALY": 128.121, "EPHEMERIS_TYPE": 0, "CLASSIFICATION_TYPE": "U", "NORAD_CAT_ID": 39260, "ELEMENT_SET_NO": 999, "REV_AT_EPOCH": 63050, "BSTAR": 8.5664e-05, "MEAN_MOTION_DOT": 1.27e-06, "MEAN_MOTION_DDOT": 0, "GROUP": "weather"}, "tle": {"line1": "1 39260U 13052A   25334.87099911  .00000127  00000+0  85664-4 0  9994", "line2": "2 39260  98.4751 313.1306 0013735 231.8727 128.1210 14.15690342630506"}}, "geometry": {"type": "Point", "coordinates": [-61.93843993768084, 60.60860403281046]}}, {"type": "Feature", "properties": {"norad_id": 40069, "name": "METEOR-M 2", "group": "weather", "lat": 13.376233584673182, "lon": 135.23006640988612, "alt_km": 821.3005380675213, "timestamp": "2025-12-01T03:58:49.195368+00:00", "meta": {"OBJECT_NAME": "METEOR-M 2", "OBJECT_ID": "2014-037A", "EPOCH": "2025-11-30T20:26:30.621984", "MEAN_MOTION": 14.2137905, "ECCENTRICITY": 0.0004641, "INCLINATION": 98.489, "RA_OF_ASC_NODE": 312.8928, "ARG_OF_PERICENTER": 250.0632, "MEAN_ANOMALY": 110.0046, "EPHEMERIS_TYPE": 0, "CLASSIFICATION_TYPE": "U", "NORAD_CAT_ID": 40069, "ELEMENT_SET_NO": 999, "REV_AT_EPOCH": 59114, "BSTAR": 9.7631e-05, "MEAN_MOTION_DOT": 1.71e-06, "MEAN_MOTION_DDOT": 0, "GROUP": "weather"}, "tle": {"line1": "1 40069U 14037A   25334.85174331  .00000171  00000+0  97631-4 0  9991", "line2": "2 40069  98.4890 312.8928 0004641 250.0632 110.0046 14.21379050591149"}}, "geometry": {"type": "Point", "coordinates": [135.23006640988612, 13.376233584673182]}}, {"type": "Feature", "properties": {"norad_id": 40267, "name": "HIMAWARI-8", "group": "weather", "lat": 0.012356219551055127, "lon": -89.35633193760474, "alt_km": 35781.121455680295, "timestamp": "2025-12-01T03:58:49.195384+00:00", "meta": {"OBJECT_NAME": "HIMAWARI-8", "OBJECT_ID": "2014-060A", "EPOCH": "2025-11-30T19:38:59.642304", "MEAN_MOTION": 1.00273103, "ECCENTRICITY": 0.0001098, "INCLINATION": 0.0404, "RA_OF_ASC_NODE": 150.308, "ARG_OF_PERICENTER": 124.337, "MEAN_ANOMALY": 230.7295, "EPHEMERIS_TYPE": 0, "CLASSIFICATION_TYPE": "U", "NORAD_CAT_ID": 40267, "ELEMENT_SET_NO": 999, "REV_AT_EPOCH": 4077, "BSTAR": 0, "MEAN_MOTION_DOT": -2.53e-06, "MEAN_MOTION_DDOT": 0, "GROUP": "weather"}, "tle": {"line1": "1 40267U 14060A   25334.81874586 -.00000253  00000+0  00000+0 0  9993", "line2": "2 40267   0.0404 150.3080 0001098 124.3370 230.7295  1.00273103 40777"}}, "geometry": {"type": "Point", "coordinates": [-89.35633193760474, 0.012356219551055127]}}, {"type": "Feature", "properties": {"norad_id": 40367, "name": "FENGYUN 2G", "group": "weather", "lat": 2.189507509466803, "lon": -130.21436367268467, "alt_km": 35776.881885510316, "timestamp": "2025-12-01T03:58:49.195399+00:00", "meta": {"OBJECT_NAME": "FENGYUN 2G", "OBJECT_ID": "2014-090A", "EPOCH": "2025-11-30T19:27:15.764832", "MEAN_MOTION": 1.00268759, "ECCENTRICITY": 0.0002947, "INCLINATION": 5.1352, "RA_OF_ASC_NODE": 75.2357, "ARG_OF_PERICENTER": 192.6945, "MEAN_ANOMALY": 193.574, "EPHEMERIS_TYPE": 0, "CLASSIFICATION_TYPE": "U", "NORAD_CAT_ID": 40367, "ELEMENT_SET_NO": 999, "REV_AT_EPOCH": 4001, "BSTAR": 0, "MEAN_MOTION_DOT": -2.81e-06, "MEAN_MOTION_DDOT": 0, "GROUP": "weather"}, "tle": {"line1": "1 40367U 14090A   25334.81059913 -.00000281  00000+0  00000+0 0  9997", "line2": "2 40367   5.1352  75.2357 0002947 192.6945 193.5740  1.00268759 40017"}}, "geometry": {"type": "Point", "coordinates": [-130.21436367268467, 2.189507509466803]}}, {"type": "Feature", "properties": {"norad_id": 40732, "name": "METEOSAT-11 (MSG-4)", "group": "weather", "lat": 2.495385938279712, "lon": 139.36564303804653, "alt_km": 35784.267461897216, "timestamp": "2025-12-01T03:58:49.195415+00:00", "meta": {"OBJECT_NAME": "METEOSAT-11 (MSG-4)", "OBJECT_ID": "2015-034A", "EPOCH": "2025-11-30T17:18:46.619424", "MEAN_MOTION": 1.00276951, "ECCENTRICITY": 2.88e-05, "INCLINATION": 2.7055, "RA_OF_ASC_NODE": 72.0309, "ARG_OF_PERICENTER": 156.8741, "MEAN_ANOMALY": 110.0559, "EPHEMERIS_TYPE": 0, "CLASSIFICATION_TYPE": "U", "NORAD_CAT_ID": 40732, "ELEMENT_SET_NO": 999, "REV_AT_EPOCH": 522, "BSTAR": 0, "MEAN_MOTION_DOT": 8.5e-07, "MEAN_MOTION_DDOT": 0, "GROUP": "weather"}, "tle": {"line1": "1 40732U 15034A   25334.72137291  .00000085  00000+0  00000+0 0  9999", "line2": "2 40732   2.7055  72.0309 0000288 156.8741 110.0559  1.00276951  5229"}}, "geometry": {"type": "Point", "coordinates": [139.36564303804653, 2.495385938279712]}}, {"type": "Feature", "properties": {"norad_id": 41105, "name": "ELEKTRO-L 2", "group": "weather", "lat": 4.187878882131832, "lon": 115.27565182849428, "alt_km": 35800.34468275317, "timestamp": "2025-12-01T03:58:49.195432+00:00", "meta": {"OBJECT_NAME": "ELEKTRO-L 2", "OBJECT_ID": "2015-074A", "EPOCH": "2025-11-30T01:47:16.165824", "MEAN_MOTION": 1.00270185, "ECCENTRICITY": 0.00037887, "INCLINATION": 6.1909, "RA_OF_ASC_NODE": 72.9771, "ARG_OF_PERICENTER": 196.121, "MEAN_ANOMALY": 172.4306, "EPHEMERIS_TYPE": 0, "CLASSIFICATION_TYPE": "U", "NORAD_CAT_ID": 41105, "ELEMENT_SET_NO": 999, "REV_AT_EPOCH": 3651, "BSTAR": 0, "MEAN_MOTION_DOT": -9.6e-07, "MEAN_MOTION_DDOT": 0, "GROUP": "weather"}, "tle": {"line1": "1 41105U 15074A   25334.07449266 -.00000096  00000+0  00000+0 0  9997", "line2": "2 41105   6.1909  72.9771 0003788 196.1210 172.4306  1.00270185 36519"}}, "geometry": {"type": "Point", "coordinates": [115.27565182849428, 4.187878882131832]}}, {"type": "Feature", "properties": {"norad_id": 41752, "name": "INSAT-3DR", "group": "weather", "lat": 0.02759214100236025, "lon": -156.13825336829598, "alt_km": 35760.6446477565, "timestamp": "2025-12-01T03:58:49.195451+00:00", "meta": {"OBJECT_NAME": "INSAT-3DR", "OBJECT_ID": "2016-054A", "EPOCH": "2025-11-30T19:19:53.968800", "MEAN_MOTION": 1.00269746, "ECCENTRICITY": 0.001429, "INCLINATION": 0.06, "RA_OF_ASC_NODE": 90.4087, "ARG_OF_PERICENTER": 178.2176, "MEAN_ANOMALY": 165.3311, "EPHEMERIS_TYPE": 0, "CLASSIFICATION_TYPE": "U", "NORAD_CAT_ID": 41752, "ELEMENT_SET_NO": 999, "REV_AT_EPOCH": 3382, "BSTAR": 0, "MEAN_MOTION_DOT": -5.5e-07, "MEAN_MOTION_DDOT": 0, "GROUP": "weather"}, "tle": {"line1": "1 41752U 16054A   25334.80548575 -.00000055  00000+0  00000+0 0  9993", "line2": "2 41752   0.0600  90.4087 0014290 178.2176 165.3311  1.00269746 33824"}}, "geometry": {"type": "Point", "coordinates": [-156.13825336829598, 0.02759214100236025]}}]}